start=new Date('2022-06-16T00:00:00.000Z').valueOf();
sats=[{"RCS_SIZE":"LARGE","TLE_LINE1":"1 50815U 22001N   22166.82796770  .00002335  00000-0  16468-3 0  9998","MEAN_MOTION":"15.08854910","MEAN_MOTION_DOT":"0.00002335","APOAPSIS":"541.476","MEAN_MOTION_DDOT":"0.0000000000000","COUNTRY_CODE":"US","MEAN_ANOMALY":"311.9277","SEMIMAJOR_AXIS":"6917.835","EPHEMERIS_TYPE":"0","TLE_LINE2":"2 50815  53.2171 167.2288 0002568  48.1934 311.9277 15.08854910 24663","TIME_SYSTEM":"UTC","NORAD_CAT_ID":"50815","SITE":"AFETR","ELEMENT_SET_NO":"999","GP_ID":"206239204","INCLINATION":"53.2171","MEAN_ELEMENT_THEORY":"SGP4","DECAY_DATE":null,"LAUNCH_DATE":"2022-01-06","BSTAR":"0.00016468000000","REF_FRAME":"TEME","ARG_OF_PERICENTER":"48.1934","OBJECT_NAME":"STARLINK-3234","CENTER_NAME":"EARTH","RA_OF_ASC_NODE":"167.2288","CLASSIFICATION_TYPE":"U","PERIAPSIS":"537.923","PERIOD":"95.437","EPOCH":"2022-06-15T19:52:16.409280","REV_AT_EPOCH":"2466","FILE":"3496999","OBJECT_ID":"2022-001N","ECCENTRICITY":"0.00025680","OBJECT_TYPE":"PAYLOAD"},{"NORAD_CAT_ID":"50816","SITE":"AFETR","GP_ID":"206239455","ELEMENT_SET_NO":"999","EPHEMERIS_TYPE":"0","SEMIMAJOR_AXIS":"6917.870","TLE_LINE2":"2 50816  53.2162 167.6820 0002388  47.5925 312.5269 15.08843439 24643","TIME_SYSTEM":"UTC","TLE_LINE1":"1 50816U 22001P   22166.73228452  .00000322  00000-0  38373-4 0  9990","RCS_SIZE":"LARGE","MEAN_ANOMALY":"312.5269","COUNTRY_CODE":"US","MEAN_MOTION_DDOT":"0.0000000000000","MEAN_MOTION_DOT":"0.00000322","APOAPSIS":"541.387","MEAN_MOTION":"15.08843439","PERIOD":"95.437","OBJECT_TYPE":"PAYLOAD","ECCENTRICITY":"0.00023880","OBJECT_ID":"2022-001P","FILE":"3496999","REV_AT_EPOCH":"2464","EPOCH":"2022-06-15T17:34:29.382528","PERIAPSIS":"538.083","CENTER_NAME":"EARTH","OBJECT_NAME":"STARLINK-3342","ARG_OF_PERICENTER":"47.5925","REF_FRAME":"TEME","CLASSIFICATION_TYPE":"U","RA_OF_ASC_NODE":"167.6820","MEAN_ELEMENT_THEORY":"SGP4","INCLINATION":"53.2162","LAUNCH_DATE":"2022-01-06","BSTAR":"0.00003837300000","DECAY_DATE":null},{"MEAN_MOTION_DOT":"0.00000189","APOAPSIS":"541.582","MEAN_MOTION":"15.08843675","MEAN_ANOMALY":"316.5352","COUNTRY_CODE":"US","MEAN_MOTION_DDOT":"0.0000000000000","RCS_SIZE":"LARGE","TLE_LINE1":"1 50817U 22001Q   22166.69181330  .00000189  00000-0  29972-4 0  9995","ELEMENT_SET_NO":"999","GP_ID":"206238203","NORAD_CAT_ID":"50817","SITE":"AFETR","TIME_SYSTEM":"UTC","TLE_LINE2":"2 50817  53.2166 167.8478 0002671  43.5851 316.5352 15.08843675 24647","SEMIMAJOR_AXIS":"6917.869","EPHEMERIS_TYPE":"0","RA_OF_ASC_NODE":"167.8478","CLASSIFICATION_TYPE":"U","ARG_OF_PERICENTER":"43.5851","REF_FRAME":"TEME","CENTER_NAME":"EARTH","OBJECT_NAME":"STARLINK-3341","DECAY_DATE":null,"LAUNCH_DATE":"2022-01-06","BSTAR":"0.00002997200000","INCLINATION":"53.2166","MEAN_ELEMENT_THEORY":"SGP4","OBJECT_ID":"2022-001Q","FILE":"3496999","REV_AT_EPOCH":"2464","EPOCH":"2022-06-15T16:36:12.669120","OBJECT_TYPE":"PAYLOAD","ECCENTRICITY":"0.00026710","PERIOD":"95.437","PERIAPSIS":"537.886"},{"LAUNCH_DATE":"2022-01-06","BSTAR":"0.00009140800000","DECAY_DATE":null,"MEAN_ELEMENT_THEORY":"SGP4","INCLINATION":"53.2152","CLASSIFICATION_TYPE":"U","RA_OF_ASC_NODE":"167.6392","CENTER_NAME":"EARTH","OBJECT_NAME":"STARLINK-3336","ARG_OF_PERICENTER":"41.9689","REF_FRAME":"TEME","PERIAPSIS":"537.617","ECCENTRICITY":"0.00030540","OBJECT_TYPE":"PAYLOAD","OBJECT_ID":"2022-001R","FILE":"3496999","EPOCH":"2022-06-15T17:45:05.467968","REV_AT_EPOCH":"2464","PERIOD":"95.437","MEAN_ANOMALY":"318.1536","COUNTRY_CODE":"US","MEAN_MOTION_DDOT":"0.0000000000000","MEAN_MOTION_DOT":"0.00001167","APOAPSIS":"541.842","MEAN_MOTION":"15.08845113","TLE_LINE1":"1 50818U 22001R   22166.73964662  .00001167  00000-0  91408-4 0  9998","RCS_SIZE":"LARGE","TIME_SYSTEM":"UTC","TLE_LINE2":"2 50818  53.2152 167.6392 0003054  41.9689 318.1536 15.08845113 24644","EPHEMERIS_TYPE":"0","SEMIMAJOR_AXIS":"6917.865","GP_ID":"206238453","ELEMENT_SET_NO":"999","NORAD_CAT_ID":"50818","SITE":"AFETR"},{"TLE_LINE2":"2 50819  53.2176 167.2955 0002084  53.5626 306.5558 15.08837404 24665","TIME_SYSTEM":"UTC","EPHEMERIS_TYPE":"0","SEMIMAJOR_AXIS":"6917.888","GP_ID":"206239704","ELEMENT_SET_NO":"999","NORAD_CAT_ID":"50819","SITE":"AFETR","COUNTRY_CODE":"US","MEAN_ANOMALY":"306.5558","MEAN_MOTION_DDOT":"0.0000000000000","APOAPSIS":"541.195","MEAN_MOTION_DOT":"0.00000925","MEAN_MOTION":"15.08837404","TLE_LINE1":"1 50819U 22001S   22166.81324147  .00000925  00000-0  76232-4 0  9995","RCS_SIZE":"LARGE","PERIAPSIS":"538.312","OBJECT_TYPE":"PAYLOAD","ECCENTRICITY":"0.00020840","FILE":"3496999","OBJECT_ID":"2022-001S","EPOCH":"2022-06-15T19:31:04.063008","REV_AT_EPOCH":"2466","PERIOD":"95.438","LAUNCH_DATE":"2022-01-06","BSTAR":"0.00007623200000","DECAY_DATE":null,"MEAN_ELEMENT_THEORY":"SGP4","INCLINATION":"53.2176","CLASSIFICATION_TYPE":"U","RA_OF_ASC_NODE":"167.2955","CENTER_NAME":"EARTH","OBJECT_NAME":"STARLINK-3327","ARG_OF_PERICENTER":"53.5626","REF_FRAME":"TEME"},{"MEAN_MOTION":"15.08839822","APOAPSIS":"541.432","MEAN_MOTION_DOT":"-0.00000621","MEAN_MOTION_DDOT":"0.0000000000000","COUNTRY_CODE":"US","MEAN_ANOMALY":"320.4277","RCS_SIZE":"LARGE","TLE_LINE1":"1 50820U 22001T   22166.72859835 -.00000621  00000-0 -20896-4 0  9994","TLE_LINE2":"2 50820  53.2166 167.6983 0002437  39.6893 320.4277 15.08839822 24641","TIME_SYSTEM":"UTC","SEMIMAJOR_AXIS":"6917.881","EPHEMERIS_TYPE":"0","ELEMENT_SET_NO":"999","GP_ID":"206239955","NORAD_CAT_ID":"50820","SITE":"AFETR","DECAY_DATE":null,"BSTAR":"-0.00002089600000","LAUNCH_DATE":"2022-01-06","INCLINATION":"53.2166","MEAN_ELEMENT_THEORY":"SGP4","RA_OF_ASC_NODE":"167.6983","CLASSIFICATION_TYPE":"U","REF_FRAME":"TEME","ARG_OF_PERICENTER":"39.6893","OBJECT_NAME":"STARLINK-3339","CENTER_NAME":"EARTH","PERIAPSIS":"538.060","EPOCH":"2022-06-15T17:29:10.897440","REV_AT_EPOCH":"2464","FILE":"3496999","OBJECT_ID":"2022-001T","OBJECT_TYPE":"PAYLOAD","ECCENTRICITY":"0.00024370","PERIOD":"95.438"},{"SEMIMAJOR_AXIS":"6917.861","EPHEMERIS_TYPE":"0","TLE_LINE2":"2 50821  53.2178 167.1756 0002358  47.4067 312.7124 15.08846264 24665","TIME_SYSTEM":"UTC","SITE":"AFETR","NORAD_CAT_ID":"50821","ELEMENT_SET_NO":"999","GP_ID":"206238703","RCS_SIZE":"LARGE","TLE_LINE1":"1 50821U 22001U   22166.84637976  .00001425  00000-0  10759-3 0  9995","MEAN_MOTION_DOT":"0.00001425","APOAPSIS":"541.357","MEAN_MOTION":"15.08846264","MEAN_ANOMALY":"312.7124","COUNTRY_CODE":"US","MEAN_MOTION_DDOT":"0.0000000000000","PERIAPSIS":"538.095","PERIOD":"95.437","OBJECT_ID":"2022-001U","FILE":"3496999","EPOCH":"2022-06-15T20:18:47.211264","REV_AT_EPOCH":"2466","ECCENTRICITY":"0.00023580","OBJECT_TYPE":"PAYLOAD","INCLINATION":"53.2178","MEAN_ELEMENT_THEORY":"SGP4","DECAY_DATE":null,"BSTAR":"0.00010759000000","LAUNCH_DATE":"2022-01-06","ARG_OF_PERICENTER":"47.4067","REF_FRAME":"TEME","CENTER_NAME":"EARTH","OBJECT_NAME":"STARLINK-3346","RA_OF_ASC_NODE":"167.1756","CLASSIFICATION_TYPE":"U"},{"TLE_LINE1":"1 50822U 22001V   22166.72124613  .00001468  00000-0  11035-3 0  9997","RCS_SIZE":"LARGE","MEAN_MOTION_DDOT":"0.0000000000000","MEAN_ANOMALY":"312.4755","COUNTRY_CODE":"US","MEAN_MOTION":"15.08839076","APOAPSIS":"541.444","MEAN_MOTION_DOT":"0.00001468","EPHEMERIS_TYPE":"0","SEMIMAJOR_AXIS":"6917.883","TIME_SYSTEM":"UTC","TLE_LINE2":"2 50822  53.2179 167.7359 0002452  47.6444 312.4755 15.08839076 24646","NORAD_CAT_ID":"50822","SITE":"AFETR","GP_ID":"206238953","ELEMENT_SET_NO":"999","MEAN_ELEMENT_THEORY":"SGP4","INCLINATION":"53.2179","BSTAR":"0.00011035000000","LAUNCH_DATE":"2022-01-06","DECAY_DATE":null,"OBJECT_NAME":"STARLINK-3343","CENTER_NAME":"EARTH","REF_FRAME":"TEME","ARG_OF_PERICENTER":"47.6444","CLASSIFICATION_TYPE":"U","RA_OF_ASC_NODE":"167.7359","PERIAPSIS":"538.052","PERIOD":"95.438","OBJECT_TYPE":"PAYLOAD","ECCENTRICITY":"0.00024520","EPOCH":"2022-06-15T17:18:35.665632","REV_AT_EPOCH":"2464","FILE":"3496999","OBJECT_ID":"2022-001V"},{"TLE_LINE2":"2 50823  53.2179 169.0476 0002883  44.5829 315.5395 15.08842728 24601","TIME_SYSTEM":"UTC","EPHEMERIS_TYPE":"0","SEMIMAJOR_AXIS":"6917.872","GP_ID":"206239205","ELEMENT_SET_NO":"999","NORAD_CAT_ID":"50823","SITE":"AFETR","MEAN_MOTION_DDOT":"0.0000000000000","MEAN_ANOMALY":"315.5395","COUNTRY_CODE":"US","MEAN_MOTION":"15.08842728","MEAN_MOTION_DOT":"0.00001148","APOAPSIS":"541.731","TLE_LINE1":"1 50823U 22001W   22166.42316510  .00001148  00000-0  90223-4 0  9996","RCS_SIZE":"LARGE","PERIAPSIS":"537.743","ECCENTRICITY":"0.00028830","OBJECT_TYPE":"PAYLOAD","EPOCH":"2022-06-15T10:09:21.464640","REV_AT_EPOCH":"2460","FILE":"3496999","OBJECT_ID":"2022-001W","PERIOD":"95.437","LAUNCH_DATE":"2022-01-06","BSTAR":"0.00009022300000","DECAY_DATE":null,"MEAN_ELEMENT_THEORY":"SGP4","INCLINATION":"53.2179","CLASSIFICATION_TYPE":"U","RA_OF_ASC_NODE":"169.0476","OBJECT_NAME":"STARLINK-3334","CENTER_NAME":"EARTH","REF_FRAME":"TEME","ARG_OF_PERICENTER":"44.5829"},{"TLE_LINE1":"1 50824U 22001X   22166.71756314 -.00000229  00000-0  37352-5 0  9994","RCS_SIZE":"LARGE","MEAN_MOTION_DDOT":"0.0000000000000","MEAN_ANOMALY":"313.1384","COUNTRY_CODE":"US","MEAN_MOTION":"15.08842372","MEAN_MOTION_DOT":"-0.00000229","APOAPSIS":"541.446","NORAD_CAT_ID":"50824","SITE":"AFETR","GP_ID":"206239456","ELEMENT_SET_NO":"999","EPHEMERIS_TYPE":"0","SEMIMAJOR_AXIS":"6917.873","TLE_LINE2":"2 50824  53.2168 167.7502 0002469  46.9814 313.1384 15.08842372 24646","TIME_SYSTEM":"UTC","OBJECT_NAME":"STARLINK-3340","CENTER_NAME":"EARTH","REF_FRAME":"TEME","ARG_OF_PERICENTER":"46.9814","CLASSIFICATION_TYPE":"U","RA_OF_ASC_NODE":"167.7502","MEAN_ELEMENT_THEORY":"SGP4","INCLINATION":"53.2168","BSTAR":"0.00000373520000","LAUNCH_DATE":"2022-01-06","DECAY_DATE":null,"PERIOD":"95.437","OBJECT_TYPE":"PAYLOAD","ECCENTRICITY":"0.00024690","EPOCH":"2022-06-15T17:13:17.455296","REV_AT_EPOCH":"2464","FILE":"3496999","OBJECT_ID":"2022-001X","PERIAPSIS":"538.030"}];
